STARLINK-31818          
1 59741U 24090M   26068.33676927 -.00000111  00000+0  54865-5 0  9992
2 59741  43.0020 185.7023 0001345 272.2238  87.8460 15.27574138103383
OTTER                   
1 62623U 25009Q   26068.72300813  .00012198  00000+0  45151-3 0  9990
2 62623  97.4065 151.3812 0003573 310.7710  49.3219 15.27809545 63722
